start=new Date('2023-01-21T00:00:00.000Z').valueOf();
sats=[{"RA_OF_ASC_NODE":"317.9392","OBJECT_ID":"2021-017BD","SEMIMAJOR_AXIS":"6925.393","CENTER_NAME":"EARTH","COUNTRY_CODE":"US","EPHEMERIS_TYPE":"0","LAUNCH_DATE":"2021-03-04","RCS_SIZE":"LARGE","PERIOD":"95.593","OBJECT_NAME":"STARLINK-2196","APOAPSIS":"548.807","OBJECT_TYPE":"PAYLOAD","TLE_LINE2":"2 47773  53.0526 317.9392 0002237 100.5489 259.5752 15.06385618104504","NORAD_CAT_ID":"47773","MEAN_ELEMENT_THEORY":"SGP4","REF_FRAME":"TEME","MEAN_MOTION_DDOT":"0.0000000000000","SITE":"AFETR","MEAN_ANOMALY":"259.5752","GP_ID":"223552920","ELEMENT_SET_NO":"999","FILE":"3756100","REV_AT_EPOCH":"10450","DECAY_DATE":null,"BSTAR":"0.00088515000000","PERIAPSIS":"545.708","MEAN_MOTION_DOT":"0.00012922","EPOCH":"2023-01-20T12:47:08.222784","INCLINATION":"53.0526","ARG_OF_PERICENTER":"100.5489","CLASSIFICATION_TYPE":"U","TIME_SYSTEM":"UTC","TLE_LINE1":"1 47773U 21017BD  23020.53273406  .00012922  00000-0  88515-3 0  9992","ECCENTRICITY":"0.00022370","MEAN_MOTION":"15.06385618"},{"OBJECT_NAME":"STARLINK-2197","APOAPSIS":"547.931","MEAN_ELEMENT_THEORY":"SGP4","REF_FRAME":"TEME","TLE_LINE2":"2 47774  53.0538 317.9621 0001013 101.9576 258.1527 15.06394719104503","OBJECT_TYPE":"PAYLOAD","NORAD_CAT_ID":"47774","COUNTRY_CODE":"US","EPHEMERIS_TYPE":"0","RA_OF_ASC_NODE":"317.9621","OBJECT_ID":"2021-017BE","SEMIMAJOR_AXIS":"6925.365","CENTER_NAME":"EARTH","RCS_SIZE":"LARGE","LAUNCH_DATE":"2021-03-04","PERIOD":"95.592","INCLINATION":"53.0538","ARG_OF_PERICENTER":"101.9576","CLASSIFICATION_TYPE":"U","TIME_SYSTEM":"UTC","MEAN_MOTION_DOT":"0.00016240","EPOCH":"2023-01-20T12:41:49.873344","TLE_LINE1":"1 47774U 21017BE  23020.52904946  .00016240  00000-0  11068-2 0  9997","ECCENTRICITY":"0.00010130","MEAN_MOTION":"15.06394719","MEAN_ANOMALY":"258.1527","GP_ID":"223552114","MEAN_MOTION_DDOT":"0.0000000000000","SITE":"AFETR","ELEMENT_SET_NO":"999","FILE":"3756033","REV_AT_EPOCH":"10450","DECAY_DATE":null,"BSTAR":"0.00110680000000","PERIAPSIS":"546.528"},{"PERIOD":"95.592","RCS_SIZE":"LARGE","LAUNCH_DATE":"2021-03-04","EPHEMERIS_TYPE":"0","COUNTRY_CODE":"US","OBJECT_ID":"2021-017BF","SEMIMAJOR_AXIS":"6925.352","CENTER_NAME":"EARTH","RA_OF_ASC_NODE":"317.9110","MEAN_ELEMENT_THEORY":"SGP4","REF_FRAME":"TEME","TLE_LINE2":"2 47775  53.0551 317.9110 0000759 149.3829 210.7204 15.06398769104511","OBJECT_TYPE":"PAYLOAD","NORAD_CAT_ID":"47775","OBJECT_NAME":"STARLINK-2198","APOAPSIS":"547.743","REV_AT_EPOCH":"10451","DECAY_DATE":null,"BSTAR":"0.00368230000000","PERIAPSIS":"546.692","ELEMENT_SET_NO":"999","FILE":"3756100","MEAN_ANOMALY":"210.7204","GP_ID":"223552915","SITE":"AFETR","MEAN_MOTION_DDOT":"0.0000000000000","MEAN_MOTION":"15.06398769","ECCENTRICITY":"0.00007590","TLE_LINE1":"1 47775U 21017BF  23020.54012274  .00054994  00000-0  36823-2 0  9998","INCLINATION":"53.0551","TIME_SYSTEM":"UTC","CLASSIFICATION_TYPE":"U","ARG_OF_PERICENTER":"149.3829","EPOCH":"2023-01-20T12:57:46.604736","MEAN_MOTION_DOT":"0.00054994"},{"RA_OF_ASC_NODE":"306.8984","SEMIMAJOR_AXIS":"6925.343","OBJECT_ID":"2021-017BG","CENTER_NAME":"EARTH","COUNTRY_CODE":"US","EPHEMERIS_TYPE":"0","RCS_SIZE":"LARGE","LAUNCH_DATE":"2021-03-04","PERIOD":"95.592","OBJECT_NAME":"STARLINK-2209","APOAPSIS":"548.082","OBJECT_TYPE":"PAYLOAD","TLE_LINE2":"2 47776  53.0533 306.8984 0001262  84.1240 275.9893 15.06401860104683","NORAD_CAT_ID":"47776","MEAN_ELEMENT_THEORY":"SGP4","REF_FRAME":"TEME","MEAN_MOTION_DDOT":"0.0000000000000","SITE":"AFETR","MEAN_ANOMALY":"275.9893","GP_ID":"223552910","ELEMENT_SET_NO":"999","FILE":"3756100","REV_AT_EPOCH":"10468","DECAY_DATE":null,"BSTAR":"0.00153750000000","PERIAPSIS":"546.334","MEAN_MOTION_DOT":"0.00022695","EPOCH":"2023-01-20T18:22:51.474720","INCLINATION":"53.0533","CLASSIFICATION_TYPE":"U","TIME_SYSTEM":"UTC","ARG_OF_PERICENTER":"84.1240","TLE_LINE1":"1 47776U 21017BG  23020.76587355  .00022695  00000-0  15375-2 0  9992","MEAN_MOTION":"15.06401860","ECCENTRICITY":"0.00012620"},{"REF_FRAME":"TEME","MEAN_ELEMENT_THEORY":"SGP4","NORAD_CAT_ID":"47777","TLE_LINE2":"2 47777  53.0531 308.0741 0001308 101.1599 258.9537 15.06406947104648","OBJECT_TYPE":"PAYLOAD","APOAPSIS":"548.098","OBJECT_NAME":"STARLINK-2210","PERIOD":"95.592","LAUNCH_DATE":"2021-03-04","RCS_SIZE":"LARGE","EPHEMERIS_TYPE":"0","COUNTRY_CODE":"US","CENTER_NAME":"EARTH","SEMIMAJOR_AXIS":"6925.327","OBJECT_ID":"2021-017BH","RA_OF_ASC_NODE":"308.0741","ECCENTRICITY":"0.00013080","MEAN_MOTION":"15.06406947","TLE_LINE1":"1 47777U 21017BH  23020.50416667  .00026551  00000-0  17943-2 0  9990","ARG_OF_PERICENTER":"101.1599","CLASSIFICATION_TYPE":"U","TIME_SYSTEM":"UTC","INCLINATION":"53.0531","EPOCH":"2023-01-20T12:06:00.000288","MEAN_MOTION_DOT":"0.00026551","BSTAR":"0.00179430000000","PERIAPSIS":"546.286","REV_AT_EPOCH":"10464","DECAY_DATE":null,"FILE":"3756100","ELEMENT_SET_NO":"999","GP_ID":"223553192","MEAN_ANOMALY":"258.9537","SITE":"AFETR","MEAN_MOTION_DDOT":"0.0000000000000"},{"INCLINATION":"53.0536","CLASSIFICATION_TYPE":"U","TIME_SYSTEM":"UTC","ARG_OF_PERICENTER":"109.0656","MEAN_MOTION_DOT":"0.00019797","EPOCH":"2023-01-20T01:44:59.538048","TLE_LINE1":"1 47778U 21017BJ  23020.07291132  .00019797  00000-0  13445-2 0  9998","MEAN_MOTION":"15.06391808","ECCENTRICITY":"0.00013510","MEAN_ANOMALY":"251.0479","GP_ID":"223545690","MEAN_MOTION_DDOT":"0.0000000000000","SITE":"AFETR","ELEMENT_SET_NO":"999","FILE":"3755973","DECAY_DATE":null,"REV_AT_EPOCH":"10522","BSTAR":"0.00134450000000","PERIAPSIS":"546.303","OBJECT_NAME":"STARLINK-2211","APOAPSIS":"548.174","MEAN_ELEMENT_THEORY":"SGP4","REF_FRAME":"TEME","TLE_LINE2":"2 47778  53.0536 310.0090 0001351 109.0656 251.0479 15.06391808105226","OBJECT_TYPE":"PAYLOAD","NORAD_CAT_ID":"47778","COUNTRY_CODE":"US","EPHEMERIS_TYPE":"0","RA_OF_ASC_NODE":"310.0090","SEMIMAJOR_AXIS":"6925.374","OBJECT_ID":"2021-017BJ","CENTER_NAME":"EARTH","RCS_SIZE":"LARGE","LAUNCH_DATE":"2021-03-04","PERIOD":"95.593"},{"SEMIMAJOR_AXIS":"6893.106","OBJECT_ID":"2021-017BK","CENTER_NAME":"EARTH","RA_OF_ASC_NODE":"284.6685","EPHEMERIS_TYPE":"0","COUNTRY_CODE":"US","PERIOD":"94.925","RCS_SIZE":"LARGE","LAUNCH_DATE":"2021-03-04","OBJECT_NAME":"STARLINK-2212","APOAPSIS":"516.902","OBJECT_TYPE":"PAYLOAD","TLE_LINE2":"2 47779  53.0546 284.6685 0002801 163.4591   2.0240 15.16981708105019","NORAD_CAT_ID":"47779","MEAN_ELEMENT_THEORY":"SGP4","REF_FRAME":"TEME","SITE":"AFETR","MEAN_MOTION_DDOT":"0.0000000000000","MEAN_ANOMALY":"2.0240","GP_ID":"223553198","DECAY_DATE":null,"REV_AT_EPOCH":"10501","PERIAPSIS":"513.040","BSTAR":"0.00146390000000","ELEMENT_SET_NO":"999","FILE":"3756110","EPOCH":"2023-01-20T22:00:00.999936","MEAN_MOTION_DOT":"0.00029069","INCLINATION":"53.0546","ARG_OF_PERICENTER":"163.4591","CLASSIFICATION_TYPE":"U","TIME_SYSTEM":"UTC","MEAN_MOTION":"15.16981708","ECCENTRICITY":"0.00028010","TLE_LINE1":"1 47779U 21017BK  23020.91667824  .00029069  00000-0  14639-2 0  9996"},{"RA_OF_ASC_NODE":"308.1060","CENTER_NAME":"EARTH","OBJECT_ID":"2021-017BL","SEMIMAJOR_AXIS":"6925.408","COUNTRY_CODE":"US","EPHEMERIS_TYPE":"0","LAUNCH_DATE":"2021-03-04","RCS_SIZE":"LARGE","PERIOD":"95.593","APOAPSIS":"548.703","OBJECT_NAME":"STARLINK-2213","NORAD_CAT_ID":"47780","TLE_LINE2":"2 47780  53.0543 308.1060 0002065  86.4756 273.6469 15.06380632105327","OBJECT_TYPE":"PAYLOAD","REF_FRAME":"TEME","MEAN_ELEMENT_THEORY":"SGP4","MEAN_MOTION_DDOT":"0.0000000000000","SITE":"AFETR","GP_ID":"223545188","MEAN_ANOMALY":"273.6469","FILE":"3755973","ELEMENT_SET_NO":"999","BSTAR":"0.00124850000000","PERIAPSIS":"545.843","REV_AT_EPOCH":"10532","DECAY_DATE":null,"MEAN_MOTION_DOT":"0.00018354","EPOCH":"2023-01-20T11:55:23.619360","ARG_OF_PERICENTER":"86.4756","CLASSIFICATION_TYPE":"U","TIME_SYSTEM":"UTC","INCLINATION":"53.0543","TLE_LINE1":"1 47780U 21017BL  23020.49680115  .00018354  00000-0  12485-2 0  9991","MEAN_MOTION":"15.06380632","ECCENTRICITY":"0.00020650"},{"ECCENTRICITY":"0.00004330","MEAN_MOTION":"15.06403396","TLE_LINE1":"1 47781U 21017BM  23020.52996217  .00018672  00000-0  12690-2 0  9990","CLASSIFICATION_TYPE":"U","ARG_OF_PERICENTER":"196.3157","TIME_SYSTEM":"UTC","INCLINATION":"53.0563","EPOCH":"2023-01-20T12:43:08.731488","MEAN_MOTION_DOT":"0.00018672","BSTAR":"0.00126900000000","PERIAPSIS":"546.903","REV_AT_EPOCH":"10464","DECAY_DATE":null,"FILE":"3756102","ELEMENT_SET_NO":"999","GP_ID":"223552934","MEAN_ANOMALY":"163.7818","SITE":"AFETR","MEAN_MOTION_DDOT":"0.0000000000000","REF_FRAME":"TEME","MEAN_ELEMENT_THEORY":"SGP4","NORAD_CAT_ID":"47781","OBJECT_TYPE":"PAYLOAD","TLE_LINE2":"2 47781  53.0563 307.9522 0000433 196.3157 163.7818 15.06403396104647","APOAPSIS":"547.503","OBJECT_NAME":"STARLINK-2223","PERIOD":"95.592","RCS_SIZE":"LARGE","LAUNCH_DATE":"2021-03-04","EPHEMERIS_TYPE":"0","COUNTRY_CODE":"US","CENTER_NAME":"EARTH","OBJECT_ID":"2021-017BM","SEMIMAJOR_AXIS":"6925.338","RA_OF_ASC_NODE":"307.9522"},{"SITE":"AFETR","MEAN_MOTION_DDOT":"0.0000000000000","MEAN_ANOMALY":"260.3006","GP_ID":"223552712","DECAY_DATE":null,"REV_AT_EPOCH":"10381","BSTAR":"0.00204400000000","PERIAPSIS":"546.290","ELEMENT_SET_NO":"999","FILE":"3756071","EPOCH":"2023-01-20T14:45:13.668192","MEAN_MOTION_DOT":"0.00030306","INCLINATION":"53.0543","ARG_OF_PERICENTER":"99.8127","CLASSIFICATION_TYPE":"U","TIME_SYSTEM":"UTC","MEAN_MOTION":"15.06412638","ECCENTRICITY":"0.00012770","TLE_LINE1":"1 47787U 21018A   23020.61474153  .00030306  00000-0  20440-2 0  9997","OBJECT_ID":"2021-018A","SEMIMAJOR_AXIS":"6925.310","CENTER_NAME":"EARTH","RA_OF_ASC_NODE":"347.5740","EPHEMERIS_TYPE":"0","COUNTRY_CODE":"US","PERIOD":"95.591","LAUNCH_DATE":"2021-03-11","RCS_SIZE":"LARGE","OBJECT_NAME":"STARLINK-2257","APOAPSIS":"548.059","TLE_LINE2":"2 47787  53.0543 347.5740 0001277  99.8127 260.3006 15.06412638103814","OBJECT_TYPE":"PAYLOAD","NORAD_CAT_ID":"47787","MEAN_ELEMENT_THEORY":"SGP4","REF_FRAME":"TEME"}];
